{"type":"FeatureCollection","features":[{"type":"Feature","geometry":{"type":"LineString","coordinates":[[-68.35616648197174,-34.61617941968143],[-68.35626631043851,-34.61598454043269],[-68.35605743341148,-34.615866439417005],[-68.3558058924973,-34.61576644331217],[-68.3555815089494,-34.61566845886409],[-68.35533818230033,-34.61558413691819],[-68.3550896588713,-34.61547743529081],[-68.35484239272773,-34.61540685966611],[-68.35464768111706,-34.615312898531556],[-68.35459353402257,-34.61511726491153],[-68.35459068417549,-34.61490134708583],[-68.35464935749769,-34.614705545827746],[-68.35479570552707,-34.614535393193364],[-68.35492797195911,-34.614379573613405],[-68.3549149800092,-34.61418427526951],[-68.35473678074777,-34.61403323337436],[-68.35456419736147,-34.61389015428722],[-68.35437158122659,-34.61376593448222],[-68.3542083017528,-34.613629560917616],[-68.35404116660357,-34.613495618104935],[-68.35385911166668,-34.61335404776037],[-68.35369943641126,-34.613204430788755],[-68.35350614972413,-34.61305271834135],[-68.35331613197923,-34.61288566701114],[-68.35311966016889,-34.61273211054504],[-68.35293324664235,-34.61257193237543],[-68.35273585282266,-34.61240580305457],[-68.35255270823836,-34.61223816499114],[-68.352369396016,-34.61208326742053],[-68.3521746005863,-34.61191990412772],[-68.35199078544974,-34.61175989359617],[-68.35178207606077,-34.611602146178484],[-68.35158878937364,-34.61143149062991],[-68.3514095004648,-34.61126821115613],[-68.35121168754995,-34.61111121810973],[-68.35103390738368,-34.61094852536917],[-68.35082804784179,-34.6108019258827],[-68.35061238147318,-34.610631270334125],[-68.35040551610291,-34.61047335527837],[-68.35020150057971,-34.610296161845326],[-68.35000301711261,-34.61013942025602],[-68.34983110427856,-34.609996089711785],[-68.34966145455837,-34.60983750410378],[-68.34949960000813,-34.60968704894185],[-68.34925484843552,-34.609710769727826],[-68.34898528642952,-34.60981210693717],[-68.34872972220182,-34.60989475250244],[-68.34847985766828,-34.609982343390584],[-68.34822781383991,-34.61006188765168],[-68.34796328097582,-34.610146628692746],[-68.34770143032074,-34.61022952571511],[-68.34744963794947,-34.61031770333648],[-68.34719281643629,-34.61039246991277],[-68.34696030244231,-34.610475953668356],[-68.34670498967171,-34.61057108826935],[-68.34642394445837,-34.61066639050841],[-68.34616871550679,-34.61075423285365],[-68.3459007460624,-34.610844757407904],[-68.34566001780331,-34.610918182879686],[-68.34540395066142,-34.61100677959621],[-68.34514922462404,-34.61109520867467],[-68.34489575587213,-34.611189337447286],[-68.34463248029351,-34.61128522641957],[-68.34436384029686,-34.61136653088033],[-68.34409327246249,-34.61146702989936],[-68.3438284881413,-34.611531402915716],[-68.3435763604939,-34.611640786752105],[-68.34333077073097,-34.6117153018713],[-68.34307587705553,-34.6117998752743],[-68.34282517433167,-34.61189174093306],[-68.34256508387625,-34.61198737844825],[-68.3423003833741,-34.61207672953606],[-68.34203735925257,-34.612150406464934],[-68.34178204648197,-34.612244702875614],[-68.34153033792973,-34.61232709698379],[-68.34127309732139,-34.6124111674726],[-68.34102164022624,-34.61248870007694],[-68.34077303297818,-34.612568160519004],[-68.340510930866,-34.61266606114805],[-68.34025301970541,-34.612757340073586],[-68.33999720402062,-34.612847696989775],[-68.33972085267305,-34.612941490486264],[-68.33950543776155,-34.61300318129361],[-68.33942664787173,-34.61316017434001],[-68.33955782465637,-34.61333753541112],[-68.33976225927472,-34.61349838413298],[-68.33995018154383,-34.61365755647421],[-68.34014472551644,-34.613818572834134],[-68.34034253843129,-34.613982858136296],[-68.34059692919254,-34.61417119950056],[-68.34075501188636,-34.61431880481541],[-68.34094234742224,-34.614477725699544],[-68.34112473763525,-34.61462172679603],[-68.34130100905895,-34.6147632971406],[-68.34150519222021,-34.61491534486413],[-68.34168020635843,-34.61506127379835],[-68.34186125546694,-34.61521189659834],[-68.34203585051,-34.61535505950451],[-68.34223341196775,-34.61550861597061],[-68.34239199757576,-34.61564683355391],[-68.3425813447684,-34.615797707811],[-68.34277563728392,-34.61595335975289],[-68.34295576438308,-34.616115717217326],[-68.34316120482981,-34.61626684293151],[-68.34333286620677,-34.61642945185304],[-68.34354375489056,-34.6165868639946],[-68.34372111596167,-34.616741174831986],[-68.3439025003463,-34.61687369272113],[-68.3440547157079,-34.61701090447605],[-68.34423693828285,-34.61714216507971],[-68.34441530518234,-34.617300583049655],[-68.34459987469018,-34.61745464242995],[-68.34478989243507,-34.61762756109238],[-68.34497530013323,-34.61776586249471],[-68.34515534341335,-34.61789955385029],[-68.34534477442503,-34.61804749444127],[-68.34550553932786,-34.61818872950971],[-68.34568868391216,-34.61833524517715],[-68.34588750265539,-34.61849450133741],[-68.34607559256256,-34.618644872680306],[-68.34623996168375,-34.61878292262554],[-68.3464205916971,-34.61894913576543],[-68.34661471657455,-34.61909766308963],[-68.34678830578923,-34.619250716641545],[-68.3469970151782,-34.61940645240247],[-68.34717873483896,-34.61954617872834],[-68.34737453609705,-34.619743488729],[-68.34754854440689,-34.619895704090595],[-68.34774116054177,-34.620034508407116],[-68.34792958572507,-34.62019057944417],[-68.34811935201287,-34.620333071798086],[-68.34829989820719,-34.620486376807094],[-68.34848237223923,-34.62063079699874],[-68.34865897893906,-34.620790304616094],[-68.34886282682419,-34.620945202186704],[-68.34908109158278,-34.62099306285381],[-68.34929156117141,-34.6209124289453],[-68.34951217286289,-34.62082047946751],[-68.3497632946819,-34.62074219249189],[-68.35001827217638,-34.62066315114498],[-68.3502746745944,-34.6205757278949],[-68.35051230154932,-34.62049148976803],[-68.35075763985515,-34.620419489219785],[-68.35096073336899,-34.620344806462526],[-68.3512266073376,-34.620257215574384],[-68.35144193843007,-34.62018462829292],[-68.35168350487947,-34.62010500021279],[-68.35192674770951,-34.62002059444785],[-68.35214761085808,-34.61995563469827],[-68.3523886743933,-34.61987399496138],[-68.3526183385402,-34.619793696329],[-68.35287147201598,-34.61972882039845],[-68.35316257551312,-34.61963418871164],[-68.35337639786303,-34.61955665610731],[-68.35361586883664,-34.619470573961735],[-68.35385240614414,-34.619383150711656],[-68.35408978164196,-34.61929849348962],[-68.35434417240322,-34.619219452142715],[-68.35458112880588,-34.6191337890923],[-68.35480987094343,-34.61906472221017],[-68.35504674352705,-34.61897822096944],[-68.35529669187963,-34.618894485756755],[-68.35552585311234,-34.6188367344439],[-68.35576314479113,-34.618753753602505],[-68.35600513033569,-34.618664821609855],[-68.35615592077374,-34.618550995364785],[-68.355982163921,-34.61837975308299],[-68.35579424165189,-34.61822678335011],[-68.35560179315507,-34.61807087995112],[-68.35542007349432,-34.617909360677004],[-68.35521966218948,-34.61773568764329],[-68.35500265471637,-34.617563439533114],[-68.35485504940152,-34.61737275123596],[-68.35480961948633,-34.617174938321114],[-68.35478288121521,-34.61694175377488],[-68.35475689731538,-34.61672441102564],[-68.3547408040613,-34.61650094948709],[-68.35471230559051,-34.61626592092216],[-68.35467969998717,-34.61605494841933],[-68.35465170443058,-34.61583727039397],[-68.35462287068367,-34.61559411138296],[-68.35470283403993,-34.61540141142905],[-68.35494012571871,-34.6154575701803],[-68.3551845420152,-34.615540970116854],[-68.35541294887662,-34.61562227457762],[-68.35564638487995,-34.61570701561868],[-68.35587244480848,-34.6157905831933],[-68.35609406232834,-34.61586115881801],[-68.35622146725655,-34.61599040776491],[-68.35619313642383,-34.61621797643602],[-68.35616631433368,-34.616429870948195],[-68.35612733848393,-34.61663883179426],[-68.35606615059078,-34.61684385314584],[-68.35601661354303,-34.61706622503698],[-68.35592474788427,-34.617279628291726],[-68.35568435490131,-34.61742237210274],[-68.35541294887662,-34.61739311926067],[-68.35521589033306,-34.61724014952779],[-68.35517565719783,-34.617017609998584],[-68.35523307323456,-34.61681107990444],[-68.355284454301,-34.61659021675587],[-68.3553296327591,-34.616365330293775],[-68.35540791973472,-34.61615259759128],[-68.35564420558512,-34.61599878966808],[-68.35593983530998,-34.61600172333419],[-68.35617310367525,-34.61614681407809],[-68.35618768818676,-34.61615729145706]]},"properties":{"type":"route"}},{"type":"Feature","geometry":{"type":"Point","coordinates":[-68.35527,-34.61648]},"properties":{"type":"start_finish","name":"Largada / Meta"}},{"type":"Feature","geometry":{"type":"Point","coordinates":[-68.35542,-34.61632]},"properties":{"type":"hydration","name":"Puesto de hidratación"}},{"type":"Feature","geometry":{"type":"Point","coordinates":[-68.34011,-34.61375]},"properties":{"type":"hydration","name":"Puesto de hidratación"}},{"type":"Feature","geometry":{"type":"Point","coordinates":[-68.356166,-34.616179]},"properties":{"type":"km","km":1}},{"type":"Feature","geometry":{"type":"Point","coordinates":[-68.349747,-34.609919]},"properties":{"type":"km","km":2}},{"type":"Feature","geometry":{"type":"Point","coordinates":[-68.339791,-34.61291]},"properties":{"type":"km","km":3}},{"type":"Feature","geometry":{"type":"Point","coordinates":[-68.346751,-34.619214]},"properties":{"type":"km","km":4}},{"type":"Feature","geometry":{"type":"Point","coordinates":[-68.356165,-34.618594]},"properties":{"type":"km","km":5}}]}