{"type":"FeatureCollection","features":[{"type":"Feature","geometry":{"type":"LineString","coordinates":[[-68.35619699209929,-34.6161341574043],[-68.35612867958844,-34.61588865146041],[-68.35573338903487,-34.61573325097561],[-68.35529702715576,-34.615565948188305],[-68.35486829280853,-34.61540107615292],[-68.35460686124861,-34.61516537703574],[-68.3546004910022,-34.614800261333585],[-68.3548288140446,-34.614448472857475],[-68.35488480515778,-34.61412317119539],[-68.35454944521189,-34.61382242850959],[-68.35422372445464,-34.613569881767035],[-68.35388786159456,-34.61331012658775],[-68.35354981943965,-34.61304056458175],[-68.35320490412414,-34.612747533246875],[-68.3528374414891,-34.61246933788061],[-68.35251649841666,-34.612204134464264],[-68.35217543877661,-34.611917389556766],[-68.35183136165142,-34.61162477731705],[-68.3514800760895,-34.61134255863726],[-68.35112082771957,-34.61105464026332],[-68.35076166316867,-34.61075817234814],[-68.35040652193129,-34.610461285337806],[-68.35001483559608,-34.61015853099525],[-68.34964930079877,-34.60984529927373],[-68.34928066469729,-34.60970263928175],[-68.34879208356142,-34.609865164384246],[-68.34830190986395,-34.61003799922764],[-68.34781299345195,-34.61019189096987],[-68.34734528325498,-34.610350392758846],[-68.34685603156686,-34.6105254907161],[-68.34636577405035,-34.61067946627736],[-68.34589026868343,-34.61085037328303],[-68.34540587849915,-34.6110123116523],[-68.34494235925376,-34.6111851464957],[-68.34443927742541,-34.611360328271985],[-68.34395061247051,-34.61152075789869],[-68.34344384260476,-34.61168370209634],[-68.34296498447657,-34.611846562474966],[-68.34245637059212,-34.61204077117145],[-68.34195907227695,-34.61219659075141],[-68.34148088470101,-34.6123696770519],[-68.34098350256681,-34.61253320798278],[-68.34048436023295,-34.61270973086357],[-68.33996929228306,-34.61287518963218],[-68.33945204503834,-34.613041235134006],[-68.3389933872968,-34.61318708024919],[-68.33848334848881,-34.6133816242218],[-68.33807380869985,-34.613581113517284],[-68.33754398860037,-34.61375528946519],[-68.33706605248153,-34.61392032913864],[-68.33656305447221,-34.61408352479339],[-68.33609970286489,-34.61421403102577],[-68.33559385500848,-34.61434135213494],[-68.33508918061852,-34.61450496688485],[-68.33462440408766,-34.6146681625396],[-68.33410372026265,-34.614842338487506],[-68.33358060568571,-34.61501643061638],[-68.33308171480894,-34.61519496515393],[-68.3326143398881,-34.615357322618365],[-68.33203012123704,-34.61554566398263],[-68.33146618679166,-34.61574305780232],[-68.33094734698534,-34.6159100253135],[-68.33044627681375,-34.61609744466841],[-68.33006339147687,-34.61635435000062],[-68.33026665262878,-34.616804625838995],[-68.33048575557768,-34.61719145067036],[-68.33070058375597,-34.617595206946135],[-68.33091122098267,-34.61802586913109],[-68.3311066031456,-34.61843825876713],[-68.33130860701203,-34.61886062286794],[-68.33152486011386,-34.619302935898304],[-68.33173499442637,-34.6196967177093],[-68.3319335617125,-34.62015478871763],[-68.3321600407362,-34.62060020305216],[-68.3323651459068,-34.62101938202977],[-68.332603527233,-34.62145138531923],[-68.33282740786672,-34.62191507220268],[-68.333013150841,-34.62233995087445],[-68.33321808837354,-34.622757118195295],[-68.33342931233346,-34.62316716089845],[-68.33361580967903,-34.623558428138494],[-68.33366241306067,-34.624005099758506],[-68.33398478105664,-34.62426317855716],[-68.33415233530104,-34.624577248468995],[-68.33435341715813,-34.62500849738717],[-68.33457880653441,-34.6253989264369],[-68.33481685258448,-34.62578834965825],[-68.33534717559814,-34.62563764303923],[-68.3358486648649,-34.625473944470286],[-68.33634143695235,-34.62530069053173],[-68.33684359677136,-34.62513095699251],[-68.33735262975097,-34.62494680657983],[-68.3378604054451,-34.624784952029586],[-68.3383390121162,-34.624601220712066],[-68.33882709033787,-34.62446694262326],[-68.33931215107441,-34.62429662235081],[-68.3398200944066,-34.62413317523897],[-68.34030255675316,-34.62396897375584],[-68.3407733682543,-34.62390770204365],[-68.34114351309836,-34.62416997179389],[-68.34133747033775,-34.6245785895735],[-68.34154576063156,-34.62499223649502],[-68.34173963405192,-34.625400099903345],[-68.34196720272303,-34.62584341876209],[-68.3421656023711,-34.62627022527158],[-68.3423728030175,-34.62668588384986],[-68.34258729591966,-34.62710581719875],[-68.34279927425086,-34.62752792984247],[-68.34301393479109,-34.62794618681073],[-68.34321669302881,-34.628371987491846],[-68.34343135356903,-34.62880742736161],[-68.34363671019673,-34.62922224774957],[-68.34385681897402,-34.62966062128544],[-68.34407064132392,-34.63008373975754],[-68.34428354166448,-34.63050593622029],[-68.34448361769319,-34.630946069955826],[-68.3446898125112,-34.631363740190864],[-68.34490271285176,-34.63179071433842],[-68.34510379470885,-34.632167061790824],[-68.34533027373254,-34.63245380669832],[-68.34580611437559,-34.63232078589499],[-68.34632378071547,-34.63215482421219],[-68.34682543762028,-34.631989281624556],[-68.34730731323361,-34.63181988336146],[-68.34780318662524,-34.63166205212474],[-68.34827743470669,-34.63150933384895],[-68.34874439053237,-34.63132493197918],[-68.34917907603085,-34.63118336163461],[-68.34963119588792,-34.631035421043634],[-68.3500920329243,-34.63088924065232],[-68.3505492657423,-34.630728559568524],[-68.35103273391724,-34.630576679483056],[-68.3515165373683,-34.630414908751845],[-68.35202288813889,-34.63024232536554],[-68.35251809097826,-34.63004635646939],[-68.35304162465036,-34.62987536564469],[-68.35354210808873,-34.629703955724835],[-68.35404745303094,-34.62953179143369],[-68.35451642051339,-34.629364321008325],[-68.35502654314041,-34.62920397520065],[-68.35552719421685,-34.62905125692487],[-68.35604284889996,-34.628874231129885],[-68.3565228804946,-34.628701815381646],[-68.35705580189824,-34.62853132747114],[-68.35747883655131,-34.62831691838801],[-68.3573342487216,-34.62803369387984],[-68.35694951936603,-34.6277111582458],[-68.35653536953032,-34.627387868240476],[-68.3561462815851,-34.62706223130226],[-68.35573104210198,-34.62673299014568],[-68.35533021949232,-34.626410035416484],[-68.35497591644526,-34.62607752531767],[-68.3545883372426,-34.625734873116016],[-68.35419832728803,-34.62545550428331],[-68.35381242446601,-34.62510732002556],[-68.35342166014016,-34.62478126399219],[-68.35302301682532,-34.624458560720086],[-68.35260316729546,-34.62414440698922],[-68.35219429805875,-34.62381575256586],[-68.35179473273456,-34.6234820690006],[-68.35139533504844,-34.62313883006573],[-68.35100180469453,-34.6228139474988],[-68.3505941927433,-34.62248948402703],[-68.3501779474318,-34.62213174439967],[-68.34975558333099,-34.62180308997631],[-68.34947805851698,-34.62143219076097],[-68.34923900663853,-34.62111795321107],[-68.34967226721346,-34.62095928378403],[-68.35013092495501,-34.620773792266846],[-68.35052931681275,-34.62049148976803],[-68.3510883897543,-34.62030499242246],[-68.35161393508315,-34.620125284418464],[-68.35218030028045,-34.61995077319443],[-68.35270869545639,-34.61975949816406],[-68.3532571233809,-34.61957191117108],[-68.35379532538354,-34.61939312517643],[-68.35434744134545,-34.61922557093203],[-68.35485018789768,-34.619034714996815],[-68.35541093721986,-34.61885224096477],[-68.3559404220432,-34.618674125522375],[-68.35597009398043,-34.61836248636246],[-68.35557589307427,-34.61799334734678],[-68.35517984814942,-34.61764424107969],[-68.35480283014476,-34.617255572229624],[-68.35474918596447,-34.61677202023566],[-68.35469872690737,-34.61628645658493],[-68.35463066585362,-34.615823021158576],[-68.35471373051405,-34.61539763957262],[-68.35524631664157,-34.615549854934216],[-68.3557712752372,-34.6157543733716],[-68.35625113919377,-34.61595260538161],[-68.35622264072299,-34.616436660289764],[-68.35612432099879,-34.61692004464567],[-68.35592022165656,-34.617372918874025],[-68.35534916259348,-34.617417426779866],[-68.3551134634763,-34.61699640378356],[-68.35522787645459,-34.616503631696105],[-68.35542568936944,-34.61604153737426],[-68.35601694881916,-34.61598051711917],[-68.35617385804653,-34.61611236445606]]},"properties":{"type":"route"}},{"type":"Feature","geometry":{"type":"Point","coordinates":[-68.35527,-34.61648]},"properties":{"type":"start_finish","name":"Largada / Meta"}},{"type":"Feature","geometry":{"type":"Point","coordinates":[-68.35542,-34.61632]},"properties":{"type":"hydration","name":"Puesto de hidratación"}},{"type":"Feature","geometry":{"type":"Point","coordinates":[-68.334,-34.62433]},"properties":{"type":"hydration","name":"Puesto de hidratación"}},{"type":"Feature","geometry":{"type":"Point","coordinates":[-68.356197,-34.616134]},"properties":{"type":"km","km":1}},{"type":"Feature","geometry":{"type":"Point","coordinates":[-68.349837,-34.609995]},"properties":{"type":"km","km":2}},{"type":"Feature","geometry":{"type":"Point","coordinates":[-68.340058,-34.612847]},"properties":{"type":"km","km":3}},{"type":"Feature","geometry":{"type":"Point","coordinates":[-68.330182,-34.616164]},"properties":{"type":"km","km":4}},{"type":"Feature","geometry":{"type":"Point","coordinates":[-68.333918,-34.624207]},"properties":{"type":"km","km":5}},{"type":"Feature","geometry":{"type":"Point","coordinates":[-68.34174,-34.6254]},"properties":{"type":"km","km":6}},{"type":"Feature","geometry":{"type":"Point","coordinates":[-68.34658,-34.632075]},"properties":{"type":"km","km":7}},{"type":"Feature","geometry":{"type":"Point","coordinates":[-68.356495,-34.628712]},"properties":{"type":"km","km":8}},{"type":"Feature","geometry":{"type":"Point","coordinates":[-68.350871,-34.622716]},"properties":{"type":"km","km":9}},{"type":"Feature","geometry":{"type":"Point","coordinates":[-68.355876,-34.618276]},"properties":{"type":"km","km":10}}]}